CCSDS_OMM_VERS = 2.0
CREATION_DATE  = 
ORIGINATOR     = 

OBJECT_NAME    = XRISM
OBJECT_ID      = 2023-137A
CENTER_NAME    = EARTH
REF_FRAME      = TEME
TIME_SYSTEM    = UTC
MEAN_ELEMENT_THEORY = SGP/SGP4

EPOCH          = 2026-03-16T20:07:22.865376
MEAN_MOTION    = 15.11582898
ECCENTRICITY   = .0007913
INCLINATION    = 31.0006
RA_OF_ASC_NODE = 237.4205
ARG_OF_PERICENTER = 110.8758
MEAN_ANOMALY   = 249.2728

EPHEMERIS_TYPE = 0
CLASSIFICATION_TYPE = U
NORAD_CAT_ID   = 57800
ELEMENT_SET_NO = 999
REV_AT_EPOCH   = 13887
BSTAR          = .25781E-3
MEAN_MOTION_DOT = .4584E-4
MEAN_MOTION_DDOT = 0

CCSDS_OMM_VERS = 2.0
CREATION_DATE  = 
ORIGINATOR     = 

OBJECT_NAME    = ACS3
OBJECT_ID      = 2024-077B
CENTER_NAME    = EARTH
REF_FRAME      = TEME
TIME_SYSTEM    = UTC
MEAN_ELEMENT_THEORY = SGP/SGP4

EPOCH          = 2026-03-16T20:11:44.348928
MEAN_MOTION    = 13.89939193
ECCENTRICITY   = .0065644
INCLINATION    = 97.2037
RA_OF_ASC_NODE = 15.3457
ARG_OF_PERICENTER = 59.3413
MEAN_ANOMALY   = 301.4200

EPHEMERIS_TYPE = 0
CLASSIFICATION_TYPE = U
NORAD_CAT_ID   = 59588
ELEMENT_SET_NO = 999
REV_AT_EPOCH   = 9519
BSTAR          = .16158E-1
MEAN_MOTION_DOT = .20267E-3
MEAN_MOTION_DDOT = 0

CCSDS_OMM_VERS = 2.0
CREATION_DATE  = 
ORIGINATOR     = 

OBJECT_NAME    = SZ-21 MODULE
OBJECT_ID      = 2025-246C
CENTER_NAME    = EARTH
REF_FRAME      = TEME
TIME_SYSTEM    = UTC
MEAN_ELEMENT_THEORY = SGP/SGP4

EPOCH          = 2026-03-16T15:07:24.413088
MEAN_MOTION    = 15.69116640
ECCENTRICITY   = .0000725
INCLINATION    = 41.4745
RA_OF_ASC_NODE = 160.6185
ARG_OF_PERICENTER = 306.4076
MEAN_ANOMALY   = 53.6699

EPHEMERIS_TYPE = 0
CLASSIFICATION_TYPE = U
NORAD_CAT_ID   = 66515
ELEMENT_SET_NO = 999
REV_AT_EPOCH   = 1916
BSTAR          = .27011E-3
MEAN_MOTION_DOT = .32043E-3
MEAN_MOTION_DDOT = 0

